CONNECTA IOT-2          
1 60522U 24149BG  26068.80712403  .00006116  00000+0  26280-3 0  9996
2 60522  97.3884 148.5070 0005337 325.6165  34.4726 15.23021673 86760
ION SCV-017             
1 63230U 25052W   26068.71648816  .00006457  00000+0  24539-3 0  9998
2 63230  97.4016 324.7516 0023746  44.9875 315.3282 15.26881798 54851
